[{"OBJECT_NAME":"COSMOS 2540","OBJECT_ID":"2019-057A","EPOCH":"2026-03-09T23:58:22.659168","MEAN_MOTION":13.85929585,"ECCENTRICITY":0.00166088,"INCLINATION":99.2113,"RA_OF_ASC_NODE":82.2282,"ARG_OF_PERICENTER":78.0483,"MEAN_ANOMALY":282.2534,"EPHEMERIS_TYPE":0,"CLASSIFICATION_TYPE":"U","NORAD_CAT_ID":44517,"ELEMENT_SET_NO":999,"REV_AT_EPOCH":33013,"BSTAR":0.0001145512,"MEAN_MOTION_DOT":8.8e-7,"MEAN_MOTION_DDOT":0},{"OBJECT_NAME":"FENGYUN 1C DEB","OBJECT_ID":"1999-025CPP","EPOCH":"2026-03-06T16:00:06.905376","MEAN_MOTION":14.1477511,"ECCENTRICITY":0.01232161,"INCLINATION":99.7273,"RA_OF_ASC_NODE":17.735,"ARG_OF_PERICENTER":287.0718,"MEAN_ANOMALY":71.6986,"EPHEMERIS_TYPE":0,"CLASSIFICATION_TYPE":"U","NORAD_CAT_ID":31986,"ELEMENT_SET_NO":999,"REV_AT_EPOCH":67765,"BSTAR":0.00047907229,"MEAN_MOTION_DOT":9.41e-6,"MEAN_MOTION_DDOT":0}]
